43578,IRIDIUM 159,2018,100.4,860.0,+,86.39,Active,1,LEO,USA,USA,Commercial/Government,Communications,Falcon,1 43578U 18061K   24325.36016791  .00000161  00000+0  50269-4 0  9995,2 43578  86.3928 296.4966 0002162  89.8108 270.3336 14.34217665331136,14.34217665,0.0002162,LEO
43922,IRIDIUM 180,2019,100.4,860.0,+,86.4,Active,1,LEO,USA,USA,Commercial/Government,Communications,Falcon,1 43922U 19002A   24325.22013931  .00000566  00000+0  19489-3 0  9999,2 43922  86.3996 233.4100 0002209  83.8805 276.2642 14.34218089306728,14.34218089,0.0002209,LEO
43923,IRIDIUM 176,2019,97.81,860.0,+,86.61,Active,1,LEO,USA,USA,Commercial/Government,Communications,Falcon,1 43923U 19002B   24324.22015759  .00002002  00000+0  31345-3 0  9991,2 43923  86.6123 233.8365 0002536  93.0118 267.1390 14.72265371314652,14.72265371,0.0002536,LEO
43924,IRIDIUM 168,2019,100.4,860.0,+,86.4,Active,1,LEO,USA,USA,Commercial/Government,Communications,Falcon,1 43924U 19002C   24325.21378493  .00000571  00000+0  19673-3 0  9998,2 43924  86.3998 233.4736 0002178  83.3150 276.8294 14.34219119306702,14.34219119,0.0002178,LEO
43925,IRIDIUM 173,2019,100.4,860.0,+,86.4,Active,1,LEO,USA,USA,Commercial/Government,Communications,Falcon,1 43925U 19002D   24324.85225372  .00000516  00000+0  17726-3 0  9991,2 43925  86.3994 233.5370 0002148  82.5814 277.5626 14.34222061306649,14.34222061,0.0002148,LEO
43926,IRIDIUM 169,2019,100.1,860.0,+,86.42,Active,1,LEO,USA,USA,Commercial/Government,Communications,Falcon,1 43926U 19002E   24324.86072273  .00000722  00000+0  22967-3 0  9995,2 43926  86.4210 265.1570 0004115  77.0868 283.0789 14.38607901307657,14.38607901,0.0004115,LEO
43927,IRIDIUM 172,2019,100.4,860.0,+,86.4,Active,1,LEO,USA,USA,Commercial/Government,Communications,Falcon,1 43927U 19002F   24325.19475744  .00000644  00000+0  22297-3 0  9992,2 43927  86.3996 233.4003 0002149  85.2067 274.9375 14.34220179306691,14.34220179,0.0002149,LEO
43928,IRIDIUM 175,2019,97.81,860.0,+,86.15,Active,1,LEO,USA,USA,Commercial/Government,Communications,Falcon,1 43928U 19002G   24325.09831265  .00001989  00000+0  31129-3 0  9993,2 43928  86.1548 197.8578 0002754  57.0410 303.1071 14.72261001314771,14.72261001,0.0002754,LEO
